NORAD_CAT_ID,OBJECT_NAME,OBJECT_TYPE,EPOCH,MEAN_MOTION,ECCENTRICITY,INCLINATION,RA_OF_ASC_NODE,ARG_OF_PERICENTER,MEAN_ANOMALY,BSTAR,MEAN_MOTION_DOT,MEAN_MOTION_DDOT,TLE_LINE0,TLE_LINE1,TLE_LINE2,SEMIMAJOR_AXIS,PERIOD,APOGEE,PERIGEE,DECAYED
52298.0,STARLINK-3760,PAYLOAD,2022-10-02 11:24:42,15.0883745,0.0001854,53.2206,329.5031,55.7292,304.3876,-2.23e-05,-6.43e-06,0.0,0 STARLINK-3760,1 52298U 22041AP  22275.47548791 -.00000643  00000-0 -22300-4 0  9994,2 52298  53.2206 329.5031 0001854  55.7292 304.3876 15.08837450 25163,6917.888000000001,95.438,541.036,538.471,0.0
52298.0,STARLINK-3760,PAYLOAD,2022-10-02 13:00:05,15.08837384,0.0001911999999999,53.2207,329.2042,52.1501,307.9664,4.0093e-05,3.5000000000000016e-06,0.0,0 STARLINK-3760,1 52298U 22041AP  22275.54172563  .00000350  00000-0  40093-4 0  9994,2 52298  53.2207 329.2042 0001912  52.1501 307.9664 15.08837384 25173,6917.888000000001,95.438,541.076,538.431,0.0
52298.0,STARLINK-3760,PAYLOAD,2022-10-03 03:18:32,15.08838564,0.0001818,53.2204,326.5298,52.2018,307.9139,0.00017633,2.519e-05,0.0,0 STARLINK-3760,1 52298U 22041AP  22276.13788089  .00002519  00000-0  17633-3 0  9998,2 52298  53.2204 326.5298 0001818  52.2018 307.9139 15.08838564 26474,6917.885,95.438,541.007,538.492,0.0
52298.0,STARLINK-3760,PAYLOAD,2022-10-03 09:40:05,15.08848786,0.0001959,53.2203,325.3393,50.9064,309.2102,4.2111e-05,3.82e-06,0.0,0 STARLINK-3760,1 52298U 22041AP  22276.40283710  .00000382  00000-0  42111-4 0  9995,2 52298  53.2203 325.3393 0001959  50.9064 309.2102 15.08848786 25301,6917.854,95.437,541.0740000000002,538.363,0.0
52298.0,STARLINK-3760,PAYLOAD,2022-10-03 20:47:46,15.08849723,0.0002096,53.2202,323.258,50.3728,309.7449,4.2787e-05,3.93e-06,0.0,0 STARLINK-3760,1 52298U 22041AP  22276.86651419  .00000393  00000-0  42787-4 0  9991,2 52298  53.2202 323.2580 0002096  50.3728 309.7449 15.08849723 26581,6917.851,95.437,541.1659999999998,538.266,0.0
52298.0,STARLINK-3760,PAYLOAD,2022-10-04 09:30:51,15.08841519,0.0001945,53.2191,320.8799,48.4535,311.6624,9.9695e-05,1.299e-05,0.0,0 STARLINK-3760,1 52298U 22041AP  22277.39643419  .00001299  00000-0  99695-4 0  9997,2 52298  53.2191 320.8799 0001945  48.4535 311.6624 15.08841519 26660,6917.876,95.437,541.086,538.395,0.0
52298.0,STARLINK-3760,PAYLOAD,2022-10-05 09:21:39,15.08839869,0.0001906,53.22,316.4184,49.6466,310.4692,-5.9405e-05,-1.233e-05,0.0,0 STARLINK-3760,1 52298U 22041AP  22278.39003705 -.00001233  00000-0 -59405-4 0  9991,2 52298  53.2200 316.4184 0001906  49.6466 310.4692 15.08839869 25603,6917.880999999999,95.438,541.064,538.427,0.0
52298.0,STARLINK-3760,PAYLOAD,2022-10-06 09:12:27,15.08828813,0.0001836,53.2203,311.9619,42.2461,317.8672,-5.508800000000001e-05,-1.164e-05,0.0,0 STARLINK-3760,1 52298U 22041AP  22279.38364755 -.00001164  00000-0 -55088-4 0  9992,2 52298  53.2203 311.9619 0001836  42.2461 317.8672 15.08828813 25757,6917.915,95.438,541.05,538.509,0.0
52298.0,STARLINK-3760,PAYLOAD,2022-10-06 18:44:45,15.0883808,0.0001883,53.219,310.176,41.6799,318.4336,1.7851e-05,-4e-08,0.0,0 STARLINK-3760,1 52298U 22041AP  22279.78108035 -.00000004  00000-0  17851-4 0  9990,2 52298  53.2190 310.1760 0001883  41.6799 318.4336 15.08838080 27022,6917.886,95.438,541.054,538.4490000000002,0.0
52298.0,STARLINK-3760,PAYLOAD,2022-10-07 09:03:13,15.08839516,0.0001873,53.2195,307.4988,50.8242,309.2917,6.0192e-05,6.7e-06,0.0,0 STARLINK-3760,1 52298U 22041AP  22280.37723967  .00000670  00000-0  60192-4 0  9998,2 52298  53.2195 307.4988 0001873  50.8242 309.2917 15.08839516 25905,6917.882,95.438,541.043,538.451,0.0
52298.0,STARLINK-3760,PAYLOAD,2022-10-07 18:35:32,15.08839994,0.0002142,53.2193,305.7134,42.1665,317.9491,6.5156e-05,7.49e-06,0.0,0 STARLINK-3760,1 52298U 22041AP  22280.77468025  .00000749  00000-0  65156-4 0  9995,2 52298  53.2193 305.7134 0002142  42.1665 317.9491 15.08839994 25969,6917.88,95.438,541.227,538.264,0.0
52298.0,STARLINK-3760,PAYLOAD,2022-10-08 10:29:24,15.08829974,0.0001916999999999,53.2191,302.7413,41.9938,318.1201,7.5738e-05,9.17e-06,0.0,0 STARLINK-3760,1 52298U 22041AP  22281.43708959  .00000917  00000-0  75738-4 0  9996,2 52298  53.2191 302.7413 0001917  41.9938 318.1201 15.08829974 27278,6917.911,95.438,541.102,538.45,0.0
52298.0,STARLINK-3760,PAYLOAD,2022-10-08 12:04:47,15.0883124,0.0001916999999999,53.2191,302.4438,42.236,317.8779,8.4945e-05,1.064e-05,0.0,0 STARLINK-3760,1 52298U 22041AP  22281.50332876  .00001064  00000-0  84945-4 0  9999,2 52298  53.2191 302.4438 0001917  42.2360 317.8779 15.08831240 26077,6917.906999999997,95.438,541.0980000000002,538.446,0.0
52298.0,STARLINK-3760,PAYLOAD,2022-10-08 18:26:20,15.08830726,0.0001943,53.2194,301.2544,43.3992,316.7153,4.6434e-06,-2.14e-06,0.0,0 STARLINK-3760,1 52298U 22041AP  22281.76829313 -.00000214  00000-0  46434-5 0  9993,2 52298  53.2194 301.2544 0001943  43.3992 316.7153 15.08830726 26114,6917.909000000002,95.438,541.118,538.43,0.0
52298.0,STARLINK-3760,PAYLOAD,2022-10-09 05:34:01,15.08841747,0.0001961,53.2197,299.1728,45.8102,314.3051,1.4718e-05,-5.4e-07,0.0,0 STARLINK-3760,1 52298U 22041AP  22282.23196669 -.00000054  00000-0  14718-4 0  9998,2 52298  53.2197 299.1728 0001961  45.8102 314.3051 15.08841747 27393,6917.875,95.437,541.097,538.383,0.0
52298.0,STARLINK-3760,PAYLOAD,2022-10-09 10:20:11,15.08840863,0.0001948,53.2192,298.2803,43.3828,316.7318,4.8383e-05,4.82e-06,0.0,0 STARLINK-3760,1 52298U 22041AP  22282.43068627  .00000482  00000-0  48383-4 0  9991,2 52298  53.2192 298.2803 0001948  43.3828 316.7318 15.08840863 26215,6917.878000000002,95.438,541.09,538.395,0.0
52298.0,STARLINK-3760,PAYLOAD,2022-10-09 18:17:07,15.08838245,0.0002014,53.2197,296.7937,44.2846,315.8307,-3.164e-05,-7.92e-06,0.0,0 STARLINK-3760,1 52298U 22041AP  22282.76189087 -.00000792  00000-0 -31640-4 0  9995,2 52298  53.2197 296.7937 0002014  44.2846 315.8307 15.08838245 26260,6917.886,95.438,541.144,538.357,0.0
52298.0,STARLINK-3760,PAYLOAD,2022-10-10 07:00:11,15.08844104,0.0001861,53.2191,294.4142,39.4234,320.6894,0.00012186,1.652e-05,0.0,0 STARLINK-3760,1 52298U 22041AP  22283.29180119  .00001652  00000-0  12186-3 0  9998,2 52298  53.2191 294.4142 0001861  39.4234 320.6894 15.08844104 26348,6917.868,95.437,541.02,538.445,0.0
52298.0,STARLINK-3760,PAYLOAD,2022-10-10 18:07:53,15.088444,0.0001844,53.2197,292.334,40.5983,319.5146,9.7721e-05,1.268e-05,0.0,0 STARLINK-3760,1 52298U 22041AP  22283.75548093  .00001268  00000-0  97721-4 0  9990,2 52298  53.2197 292.3340 0001844  40.5983 319.5146 15.08844400 26410,6917.8669999999975,95.437,541.008,538.456,0.0
52298.0,STARLINK-3760,PAYLOAD,2022-10-11 06:50:59,15.08837131,0.0001875,53.2201,289.9555,41.4863,318.6271,-2.9205e-05,-7.53e-06,0.0,0 STARLINK-3760,1 52298U 22041AP  22284.28541047 -.00000753  00000-0 -29205-4 0  9993,2 52298  53.2201 289.9555 0001875  41.4863 318.6271 15.08837131 26497,6917.889,95.438,541.0509999999998,538.457,0.0
52298.0,STARLINK-3760,PAYLOAD,2022-10-12 06:41:47,15.08833231,0.000176,53.2196,285.4954,43.3918,316.7213,-8.1511e-05,-1.585e-05,0.0,0 STARLINK-3760,1 52298U 22041AP  22285.27901927 -.00001585  00000-0 -81511-4 0  9992,2 52298  53.2196 285.4954 0001760  43.3918 316.7213 15.08833231 26648,6917.901,95.438,540.984,538.549,0.0
52298.0,STARLINK-3760,PAYLOAD,2022-10-13 03:21:47,15.08837928,0.0001873,53.2195,281.6303,40.7109,319.4022,6.6554e-05,7.71e-06,0.0,0 STARLINK-3760,1 52298U 22041AP  22286.14013329  .00000771  00000-0  66554-4 0  9993,2 52298  53.2195 281.6303 0001873  40.7109 319.4022 15.08837928 27984,6917.887,95.438,541.047,538.456,0.0
52298.0,STARLINK-3760,PAYLOAD,2022-10-13 06:32:33,15.08836804,0.0001869,53.2194,281.0354,40.8872,319.226,5.6737e-05,6.15e-06,0.0,0 STARLINK-3760,1 52298U 22041AP  22286.27261461  .00000615  00000-0  56737-4 0  9998,2 52298  53.2194 281.0354 0001869  40.8872 319.2260 15.08836804 26798,6917.89,95.438,541.048,538.462,0.0
52298.0,STARLINK-3760,PAYLOAD,2022-10-14 04:47:57,15.08840977,0.0001935,53.2192,276.8716,42.5407,317.5735,8.808799999999999e-05,1.114e-05,0.0,0 STARLINK-3760,1 52298U 22041AP  22287.19997406  .00001114  00000-0  88088-4 0  9994,2 52298  53.2192 276.8716 0001935  42.5407 317.5735 15.08840977 28142,6917.877,95.437,541.081,538.404,0.0
52298.0,STARLINK-3760,PAYLOAD,2022-10-14 11:09:30,15.08836499,0.000196,53.2189,275.6822,43.2475,316.8671,5.462e-05,5.81e-06,0.0,0 STARLINK-3760,1 52298U 22041AP  22287.46493812  .00000581  00000-0  54620-4 0  9998,2 52298  53.2189 275.6822 0001960  43.2475 316.8671 15.08836499 26978,6917.891,95.438,541.112,538.4,0.0
52298.0,STARLINK-3760,PAYLOAD,2022-10-14 15:55:40,15.08838633,0.000213,53.2192,274.7908,41.6757,318.4397,3.2763000000000005e-05,2.33e-06,0.0,0 STARLINK-3760,1 52298U 22041AP  22287.66365809  .00000233  00000-0  32763-4 0  9992,2 52298  53.2192 274.7908 0002130  41.6757 318.4397 15.08838633 27002,6917.885,95.438,541.2230000000002,538.276,0.0
52298.0,STARLINK-3760,PAYLOAD,2022-10-15 03:03:20,15.08851328,0.0001871,53.219,272.7086,39.8109,320.3021,9.565e-05,1.235e-05,0.0,0 STARLINK-3760,1 52298U 22041AP  22288.12732521  .00001235  00000-0  95650-4 0  9990,2 52298  53.2190 272.7086 0001871  39.8109 320.3021 15.08851328 28289,6917.846,95.437,541.005,538.4159999999998,0.0
52298.0,STARLINK-3760,PAYLOAD,2022-10-15 09:24:53,15.088447699999998,0.0001918,53.2191,271.5191,45.9917,314.1233,5.6829e-05,6.17e-06,0.0,0 STARLINK-3760,1 52298U 22041AP  22288.39228934  .00000617  00000-0  56829-4 0  9995,2 52298  53.2191 271.5191 0001918  45.9917 314.1233 15.08844770 28325,6917.866,95.437,541.058,538.404,0.0
52298.0,STARLINK-3760,PAYLOAD,2022-10-16 09:15:41,15.08836091,0.0002002,53.2203,267.0595,50.9364,309.1806,-5.9427e-05,-1.234e-05,0.0,0 STARLINK-3760,1 52298U 22041AP  22289.38589844 -.00001234  00000-0 -59427-4 0  9990,2 52298  53.2203 267.0595 0002002  50.9364 309.1806 15.08836091 27263,6917.892,95.438,541.1419999999998,538.372,0.0
